DELTA 2 DEB (DPAF)
1 26623U 00075E   20284.22897624  .00002036  00000-0  10633-3 0  9994
2 26623  98.0026 183.3885 0002057 164.0719 196.0578 15.17178878 79177
ANIK F1
1 26624U 00076A   20284.22494759 -.00000075 +00000-0 +00000-0 0  9994
2 26624 000.0127 177.0457 0003248 004.4276 171.5171 01.00272351022326
SIRIUS 3
1 26626U 00077A   20284.06343061 -.00000010 +00000-0 +00000-0 0  9997
2 26626 061.6425 320.6220 0007039 274.2429 085.7475 01.58822226081520
SL-12 R/B(2)
1 26629U 00077D   20283.00670609  .00000101  00000-0  00000+0 0  9993
2 26629  61.5470 157.4601 5006327 253.2777  47.8839  1.45599081105478
ATLAS 2AS CENTAUR R/B
1 26636U 00080B   20283.94444988  .00010514  00000-0  10961-2 0  9996
2 26636  26.3149   0.5992 6414001   9.5367 358.4289  3.46707827 16708
ASTRA 2D
1 26638U 00081A   20284.05994865  .00000066  00000-0  00000+0 0  9997
2 26638   6.0203  64.0518 0001657 136.6497 257.2376  1.00271651 72573
AMC-8 (GE-8)
1 26639U 00081B   20284.20604774 +.00000088 +00000-0 +00000-0 0  9997
2 26639 000.9300 094.6320 0002870 112.3745 111.4554 01.00272250072519
CHINASAT 31 (BEIDOU 1B)
1 26643U 00082A   20283.41310650 +.00000090 +00000-0 +00000-0 0  9995
2 26643 009.6601 040.5505 0083139 036.5440 142.8961 00.99250046031460
COSMOS 1579 COOLANT
1 26646U 84069T   20282.41530184 -.00000007 +00000-0 +66036-4 0  9994
2 26646 065.0452 283.3843 0043580 351.4276 079.8538 13.90457722371738
CZ-4 DEB
1 26650U 99057LG  20283.49067072  .00000496  00000-0  72820-4 0  9991
2 26650  98.6166 102.2791 0010267 300.5374 118.1056 14.80447556 89831
CZ-4 DEB
1 26654U 99057LL  20283.75800242 +.00000645 +00000-0 +20329-3 0  9990
2 26654 098.8006 296.9436 0132225 195.2202 164.4990 14.39087861050174
CZ-4 DEB
1 26658U 99057LQ  20283.81744414 +.00000236 +00000-0 +75977-4 0  9995
2 26658 098.5734 264.0078 0074930 269.2993 208.7811 14.46881269060221
CZ-4 DEB
1 26661U 99057LT  20284.31022083  .00000550  00000-0  11578-3 0  9991
2 26661  98.3640 303.7575 0069087 331.1320  84.0007 14.62225242 75760
TURKSAT 2A
1 26666U 01002A   20284.25390543 -.00000054 +00000-0 +00000-0 0  9996
2 26666 003.8619 080.3156 0007757 263.0112 053.1634 00.98207278071899
NIMBUS 2 DEB
1 26669U 66040J   20284.46107817  .00001919  00000-0  23524-2 0  9993
2 26669 100.2051 158.4088 0052155  50.0534  74.9290 13.66452303  4704
NIMBUS 2 DEB
1 26670U 66040K   20283.86635189  .00001051  00000-0  12005-2 0  9995
2 26670 100.2701 258.8320 0049854   3.6015  57.7131 13.72069376664450
COSMOS 1188 DEB
1 26676U 80050F   20272.96497150  .00000226  00000-0  00000+0 0  9993
2 26676  69.1337 202.9040 5822977 291.2165  17.8223  1.93639967165661
COSMOS 1188 DEB
1 26677U 80050G   20276.54356396 +.00000262 +00000-0 +00000-0 0  9999
2 26677 072.7170 265.4023 5223511 234.7280 343.6571 01.93148370188845
COSMOS 1217 DEB
1 26678U 80085E   20271.52569981  .00160367  00000-0  38119-1 0  9993
2 26678  63.0592 327.5702 6726510  39.3230 353.9549  3.00336279163101
COSMOS 1285 DEB
1 26680U 81071L   20267.01049828  .00000944  00000-0  00000+0 0  9994
2 26680  64.2810 250.9289 6437517  49.6765 350.8839  1.98223586166474
ARIANE 1 DEB
1 26681U 84023G   20283.50310779 -.00000017  00000-0  14121-2 0  9997
2 26681   8.7089 276.7954 6863195  60.7137   6.5994  2.59219861206711
ARIANE 1 DEB
1 26683U 85056H   20283.98056398 +.00000003 +00000-0 +76299-2 0  9990
2 26683 006.1239 007.9269 7105886 209.4695 154.6921 02.22807329064611
ARIANE 1 DEB
1 26684U 85056J   20282.33669382 -.00000209  00000-0 -93674-3 0  9999
2 26684   5.5889 180.3895 7071033 215.0683 347.8525  2.36130076188103
ARIANE 1 DEB
1 26685U 85056K   20283.71017630 -.00000097 +00000-0 +00000-0 0  9998
2 26685 007.8138 051.8796 7047616 091.7075 342.9837 02.16360658055858
NAVSTAR 50 (USA 156)
1 26690U 01004A   20284.21002552 +.00000052 +00000-0 +00000-0 0  9998
2 26690 053.5053 109.7366 0000625 014.6248 183.9040 01.91595452143763
SKYNET 4F
1 26695U 01005B   20284.21402906 +.00000060 +00000-0 +00000-0 0  9990
2 26695 010.0885 029.2441 0002858 157.1853 151.0677 00.99145716072027
ARIANE 44L R/B
1 26696U 01005C   20283.31845365 +.00000167 +00000-0 +33286-3 0  9994
2 26696 007.4071 001.7112 7020670 318.4058 005.7419 02.58358890174278
DELTA 1 DEB
1 26701U 75052KB  20284.50356847  .00000139  00000-0  22211-3 0  9993
2 26701  99.9788 125.4649 0262887  30.1286  37.8156 13.52979984981041
ODIN
1 26702U 01007A   20284.10657382 -.00000167 +00000-0 -67760-5 0  9990
2 26702 097.5520 299.1432 0009807 229.6284 130.4089 15.08149295073496
SL-18 R/B
1 26703U 01007B   20284.09408771  .00000210  00000-0  23431-4 0  9998
2 26703  97.6988 291.8256 0004956  85.2240 274.9548 14.96705739 69572
USA 157
1 26715U 01009A   20284.60674372 -.00000278  00000-0  00000+0 0  9999
2 26715   9.4357  29.9931 0003044 208.9238 137.5659  1.00407615 10828
TITAN 4 CENTAUR R/B
1 26716U 01009B   20284.17128695 -.00000294  00000-0  00000+0 0  9992
2 26716  11.1094  25.1023 0016213  79.2542 280.9328  1.00475681  5374
ARIANE 2 DEB
1 26717U 89006C   20283.48341866 -.00000166 +00000-0 -36525-3 0  9990
2 26717 007.8926 218.9748 7157843 186.9391 229.5639 02.26216690163446
EUTE 28A (EB 1)
1 26719U 01011A   20284.20587414  .00000078  00000-0  00000+0 0  9999
2 26719   2.2271  87.9911 0004834 110.6363 121.9387  1.00273390 71751
BSAT-2A
1 26720U 01011B   20284.22058564 -.00000202 +00000-0 +00000-0 0  9993
2 26720 006.3428 062.6171 0003735 148.9231 058.4733 00.99181511071385
ARIANE 5 R/B
1 26721U 01011C   20284.20604774 -.00000068  00000-0 -42875-2 0  9991
2 26721   1.6887 313.4242 7051518 170.5137 209.3126  2.24564757160811
ARIANE 5 DEB (SYLDA)
1 26722U 01011D   20284.17379147 -.00000137 +00000-0 -10333-1 0  9991
2 26722 002.2453 329.2294 7070365 133.8704 324.1881 02.22892982159592
XM-2
1 26724U 01012A   20284.18949394 -.00000218 +00000-0 +00000-0 0  9990
2 26724 004.7307 073.8210 0006251 047.9600 312.6362 00.99085215021673
BLOCK DM-SL R/B
1 26725U 01012B   20284.42450751 -.00000141  00000-0 -55469-2 0  9999
2 26725   1.4187  12.8662 7052441 128.9495  18.8389  2.23577612159840
ARIANE 2 DEB
1 26726U 89006D   20283.27201259 -.00000029  00000-0 -59729-3 0  9997
2 26726   7.5857 176.9370 7176009 268.9517 337.8310  2.27138523163950
ARIANE 2 DEB
1 26727U 89006E   20278.59690679 -.00000106 +00000-0 -68232-3 0  9990
2 26727 007.7681 181.0225 7162972 258.5991 010.9208 02.27951436164119
ARIANE 2 DEB
1 26728U 89006F   20284.10239563 +.00000853 +00000-0 +30979-2 0  9999
2 26728 008.3628 008.9140 7108698 239.5756 032.6689 02.39863923169568
ARIANE 2 DEB
1 26729U 89006G   20283.72024768 -.00000219 +00000-0 -93440-4 0  9998
2 26729 008.2745 080.4478 7185383 096.2281 342.5237 02.29912830164450
OPS 4682 DEB
1 26731U 65027BE  20283.86582934 -.00000012  00000-0 -68586-4 0  9991
2 26731  90.2897 324.6654 0021161 259.4913 275.1026 12.94387475192229
OPS 4682 DEB
1 26732U 65027BF  20282.89245701 -.00000654 +00000-0 -23644-2 0  9998
2 26732 090.2908 321.4077 0052434 238.1450 297.1178 12.94398448226293
OPS 4682 DEB
1 26733U 65027BG  20283.59702296 +.00000099 +00000-0 +33390-3 0  9995
2 26733 090.2864 317.8885 0032312 259.6537 220.8084 12.93720204928463
EKRAN 21
1 26736U 01014A   20284.22409073 -.00000114 +00000-0 +00000-0 0  9990
2 26736 012.8743 028.9854 0032461 021.2512 226.6829 00.99593151071258
BREEZE-M R/B
1 26738U 01014C   20284.17930963 -.00000264  00000-0  00000+0 0  9998
2 26738  13.3590  29.8892 0170498 184.2374 197.5677  0.97966070 69871
PEGASUS DEB
1 26740U 94029AEH 20284.43330042  .00000747  00000-0  63664-4 0  9995
2 26740  81.8674 319.7202 0113351  24.3433  35.4262 14.91415850183206
ARIANE 42P+ DEB
1 26741U 92072J   20283.32902321 -.00001192 +00000-0 -20320-1 0  9990
2 26741 007.6426 284.0000 6568667 223.8308 243.4389 02.92355642224583
SL-8 DEB
1 26743U 79028C   20283.55290989 +.00000053 +00000-0 +38673-4 0  9999
2 26743 082.9244 226.9102 0030515 158.9958 201.2459 13.75473000448025
GSAT 1
1 26745U 01015A   20283.98161081 -.00000103  00000-0  00000+0 0  9994
2 26745  12.0004  19.6570 0237888 240.3584 134.9208  1.03822014 73966
CZ-4 DEB
1 26754U 99057MB  20283.88843478 +.00000627 +00000-0 +95226-4 0  9992
2 26754 098.5241 321.5537 0061183 183.8460 176.2286 14.76802137044975
CZ-4 DEB
1 26755U 99057MC  20283.96513319 +.00000927 +00000-0 +15368-3 0  9991
2 26755 098.3965 082.2385 0064228 126.0847 359.2937 14.71450185039326
CZ-4 DEB
1 26756U 99057MD  20284.17001918  .00000061  00000-0  33767-4 0  9996
2 26756  98.7117 254.1105 0085235 121.9784 238.9723 14.38384569 25321
XM-1
1 26761U 01018A   20284.24713052 -.00000028  00000-0  00000+0 0  9992
2 26761   3.7729  81.1817 0003553 218.8843  10.1165  0.99008305 70991
BLOCK DM-SL R/B
1 26762U 01018B   20284.14204038 -.00000259 +00000-0 -46330-2 0  9997
2 26762 001.2091 071.1529 7050817 102.8922 244.0268 02.23845791158927
INTELSAT 10 (PAS 10)
1 26766U 01019A   20284.12982458 +.00000126 +00000-0 +00000-0 0  9992
2 26766 004.1459 078.1460 0003317 139.9149 255.4036 01.00271353024809
BLOCK DM R/B
1 26769U 01019D   20283.85535515 -.00000148  00000-0  00000+0 0  9996
2 26769  16.4748 225.0541 5138035 313.3545 291.3428  1.86700019132366
TITAN 3C TRANSTAGE DEB
1 26778U 65108AW  20282.11241934 -.00000119  00000-0 -20262-2 0  9996
2 26778  27.4453 181.9252 6796601 314.4981  61.2901  2.64826386200231
TITAN 3C TRANSTAGE DEB
1 26780U 65108AY  20283.79440262 +.00000035 +00000-0 +00000-0 0  9990
2 26780 026.4753 111.9009 6316777 162.5985 224.0598 02.58825974086729
TITAN 3C TRANSTAGE DEB
1 26782U 65108BA  20280.97134944  .00009159  00000-0  60167-3 0  9995
2 26782  26.4594 161.0282 3710445 257.0971  59.7929  7.96222083553959
COSMOS 1247 DEB
1 26786U 81016J   20278.36280949 +.00000548 +00000-0 +00000-0 0  9992
2 26786 067.7499 154.6072 6343031 020.0073 356.7160 02.05145108182049
